CCSDS_OMM_VERS = 2.0
CREATION_DATE  = 
ORIGINATOR     = 

OBJECT_NAME    = ALOS (DAICHI)
OBJECT_ID      = 2006-002A
CENTER_NAME    = EARTH
REF_FRAME      = TEME
TIME_SYSTEM    = UTC
MEAN_ELEMENT_THEORY = SGP/SGP4

EPOCH          = 2025-12-17T17:37:14.152512
MEAN_MOTION    = 14.69501788
ECCENTRICITY   = .00013612
INCLINATION    = 98.1098
RA_OF_ASC_NODE = 303.1864
ARG_OF_PERICENTER = 113.5739
MEAN_ANOMALY   = 246.5610

EPHEMERIS_TYPE = 0
CLASSIFICATION_TYPE = U
NORAD_CAT_ID   = 28931
ELEMENT_SET_NO = 999
REV_AT_EPOCH   = 6144
BSTAR          = .19545051E-3
MEAN_MOTION_DOT = .111E-4
MEAN_MOTION_DDOT = 0

CCSDS_OMM_VERS = 2.0
CREATION_DATE  = 
ORIGINATOR     = 

OBJECT_NAME    = H-2A R/B
OBJECT_ID      = 2006-002B
CENTER_NAME    = EARTH
REF_FRAME      = TEME
TIME_SYSTEM    = UTC
MEAN_ELEMENT_THEORY = SGP/SGP4

EPOCH          = 2025-12-22T19:50:42.001728
MEAN_MOTION    = 15.14759907
ECCENTRICITY   = .00548349
INCLINATION    = 98.2323
RA_OF_ASC_NODE = 132.4008
ARG_OF_PERICENTER = 142.2339
MEAN_ANOMALY   = 218.2759

EPHEMERIS_TYPE = 0
CLASSIFICATION_TYPE = U
NORAD_CAT_ID   = 28932
ELEMENT_SET_NO = 999
REV_AT_EPOCH   = 8279
BSTAR          = .50879439E-3
MEAN_MOTION_DOT = .9724E-4
MEAN_MOTION_DDOT = 0

CCSDS_OMM_VERS = 2.0
CREATION_DATE  = 
ORIGINATOR     = 

OBJECT_NAME    = RESURS-DK 1
OBJECT_ID      = 2006-021A
CENTER_NAME    = EARTH
REF_FRAME      = TEME
TIME_SYSTEM    = UTC
MEAN_ELEMENT_THEORY = SGP/SGP4

EPOCH          = 2025-12-23T14:42:01.772928
MEAN_MOTION    = 15.12217800
ECCENTRICITY   = .0006872
INCLINATION    = 69.9337
RA_OF_ASC_NODE = 73.7385
ARG_OF_PERICENTER = 249.2294
MEAN_ANOMALY   = 110.8136

EPHEMERIS_TYPE = 0
CLASSIFICATION_TYPE = U
NORAD_CAT_ID   = 29228
ELEMENT_SET_NO = 999
REV_AT_EPOCH   = 7602
BSTAR          = .16371E-3
MEAN_MOTION_DOT = .2729E-4
MEAN_MOTION_DDOT = 0

CCSDS_OMM_VERS = 2.0
CREATION_DATE  = 
ORIGINATOR     = 

OBJECT_NAME    = CZ-4B R/B
OBJECT_ID      = 2006-046C
CENTER_NAME    = EARTH
REF_FRAME      = TEME
TIME_SYSTEM    = UTC
MEAN_ELEMENT_THEORY = SGP/SGP4

EPOCH          = 2025-12-23T01:35:41.483904
MEAN_MOTION    = 15.15968615
ECCENTRICITY   = .00341848
INCLINATION    = 97.5715
RA_OF_ASC_NODE = 37.1765
ARG_OF_PERICENTER = 170.5195
MEAN_ANOMALY   = 189.6691

EPHEMERIS_TYPE = 0
CLASSIFICATION_TYPE = U
NORAD_CAT_ID   = 29507
ELEMENT_SET_NO = 999
REV_AT_EPOCH   = 4843
BSTAR          = .29845639E-3
MEAN_MOTION_DOT = .5743E-4
MEAN_MOTION_DDOT = 0

CCSDS_OMM_VERS = 2.0
CREATION_DATE  = 
ORIGINATOR     = 

OBJECT_NAME    = CZ-2C R/B
OBJECT_ID      = 2007-010B
CENTER_NAME    = EARTH
REF_FRAME      = TEME
TIME_SYSTEM    = UTC
MEAN_ELEMENT_THEORY = SGP/SGP4

EPOCH          = 2025-12-23T18:42:51.009120
MEAN_MOTION    = 14.20214044
ECCENTRICITY   = .0059563
INCLINATION    = 98.3975
RA_OF_ASC_NODE = 109.8749
ARG_OF_PERICENTER = 153.9994
MEAN_ANOMALY   = 206.4197

EPHEMERIS_TYPE = 0
CLASSIFICATION_TYPE = U
NORAD_CAT_ID   = 31114
ELEMENT_SET_NO = 999
REV_AT_EPOCH   = 96894
BSTAR          = .85236E-4
MEAN_MOTION_DOT = .145E-5
MEAN_MOTION_DDOT = 0

CCSDS_OMM_VERS = 2.0
CREATION_DATE  = 
ORIGINATOR     = 

OBJECT_NAME    = COSMO-SKYMED 1
OBJECT_ID      = 2007-023A
CENTER_NAME    = EARTH
REF_FRAME      = TEME
TIME_SYSTEM    = UTC
MEAN_ELEMENT_THEORY = SGP/SGP4

EPOCH          = 2025-12-23T19:49:12.056736
MEAN_MOTION    = 14.95845812
ECCENTRICITY   = .0001381
INCLINATION    = 97.8840
RA_OF_ASC_NODE = 183.2983
ARG_OF_PERICENTER = 79.0236
MEAN_ANOMALY   = 281.1140

EPHEMERIS_TYPE = 0
CLASSIFICATION_TYPE = U
NORAD_CAT_ID   = 31598
ELEMENT_SET_NO = 999
REV_AT_EPOCH   = 356
BSTAR          = .27832E-3
MEAN_MOTION_DOT = .305E-4
MEAN_MOTION_DDOT = 0

CCSDS_OMM_VERS = 2.0
CREATION_DATE  = 
ORIGINATOR     = 

OBJECT_NAME    = COSMOS 2428
OBJECT_ID      = 2007-029A
CENTER_NAME    = EARTH
REF_FRAME      = TEME
TIME_SYSTEM    = UTC
MEAN_ELEMENT_THEORY = SGP/SGP4

EPOCH          = 2025-12-23T17:05:18.534048
MEAN_MOTION    = 14.12894112
ECCENTRICITY   = .0004295
INCLINATION    = 70.9366
RA_OF_ASC_NODE = 2.8420
ARG_OF_PERICENTER = 8.2113
MEAN_ANOMALY   = 351.9077

EPHEMERIS_TYPE = 0
CLASSIFICATION_TYPE = U
NORAD_CAT_ID   = 31792
ELEMENT_SET_NO = 999
REV_AT_EPOCH   = 95336
BSTAR          = .1277E-3
MEAN_MOTION_DOT = .19E-5
MEAN_MOTION_DDOT = 0

CCSDS_OMM_VERS = 2.0
CREATION_DATE  = 
ORIGINATOR     = 

OBJECT_NAME    = SL-16 R/B
OBJECT_ID      = 2007-029B
CENTER_NAME    = EARTH
REF_FRAME      = TEME
TIME_SYSTEM    = UTC
MEAN_ELEMENT_THEORY = SGP/SGP4

EPOCH          = 2025-12-23T17:21:42.533280
MEAN_MOTION    = 14.14817979
ECCENTRICITY   = .0001877
INCLINATION    = 70.9762
RA_OF_ASC_NODE = 332.0683
ARG_OF_PERICENTER = 263.7843
MEAN_ANOMALY   = 268.7871

EPHEMERIS_TYPE = 0
CLASSIFICATION_TYPE = U
NORAD_CAT_ID   = 31793
ELEMENT_SET_NO = 999
REV_AT_EPOCH   = 95462
BSTAR          = .17261E-3
MEAN_MOTION_DOT = .285E-5
MEAN_MOTION_DDOT = 0

CCSDS_OMM_VERS = 2.0
CREATION_DATE  = 
ORIGINATOR     = 

OBJECT_NAME    = KORONAS-FOTON
OBJECT_ID      = 2009-003A
CENTER_NAME    = EARTH
REF_FRAME      = TEME
TIME_SYSTEM    = UTC
MEAN_ELEMENT_THEORY = SGP/SGP4

EPOCH          = 2025-12-23T11:11:54.970944
MEAN_MOTION    = 15.41399762
ECCENTRICITY   = .0013348
INCLINATION    = 82.4309
RA_OF_ASC_NODE = 354.9880
ARG_OF_PERICENTER = 75.0431
MEAN_ANOMALY   = 285.2291

EPHEMERIS_TYPE = 0
CLASSIFICATION_TYPE = U
NORAD_CAT_ID   = 33504
ELEMENT_SET_NO = 999
REV_AT_EPOCH   = 93399
BSTAR          = .23903E-3
MEAN_MOTION_DOT = .10054E-3
MEAN_MOTION_DDOT = 0

CCSDS_OMM_VERS = 2.0
CREATION_DATE  = 
ORIGINATOR     = 

OBJECT_NAME    = CZ-2C R/B
OBJECT_ID      = 2011-030B
CENTER_NAME    = EARTH
REF_FRAME      = TEME
TIME_SYSTEM    = UTC
MEAN_ELEMENT_THEORY = SGP/SGP4

EPOCH          = 2025-12-23T02:59:21.043104
MEAN_MOTION    = 14.80932500
ECCENTRICITY   = .00514546
INCLINATION    = 97.8430
RA_OF_ASC_NODE = 311.0022
ARG_OF_PERICENTER = 238.8490
MEAN_ANOMALY   = 131.0051

EPHEMERIS_TYPE = 0
CLASSIFICATION_TYPE = U
NORAD_CAT_ID   = 37731
ELEMENT_SET_NO = 999
REV_AT_EPOCH   = 77876
BSTAR          = .17390244E-3
MEAN_MOTION_DOT = .132E-4
MEAN_MOTION_DDOT = 0

CCSDS_OMM_VERS = 2.0
CREATION_DATE  = 
ORIGINATOR     = 

OBJECT_NAME    = H-2A R/B
OBJECT_ID      = 2012-025E
CENTER_NAME    = EARTH
REF_FRAME      = TEME
TIME_SYSTEM    = UTC
MEAN_ELEMENT_THEORY = SGP/SGP4

EPOCH          = 2025-12-23T19:42:13.688064
MEAN_MOTION    = 14.94511109
ECCENTRICITY   = .0044515
INCLINATION    = 98.4611
RA_OF_ASC_NODE = 313.9060
ARG_OF_PERICENTER = 199.2697
MEAN_ANOMALY   = 160.6839

EPHEMERIS_TYPE = 0
CLASSIFICATION_TYPE = U
NORAD_CAT_ID   = 38341
ELEMENT_SET_NO = 999
REV_AT_EPOCH   = 73688
BSTAR          = .30494E-3
MEAN_MOTION_DOT = .3289E-4
MEAN_MOTION_DDOT = 0

CCSDS_OMM_VERS = 2.0
CREATION_DATE  = 
ORIGINATOR     = 

OBJECT_NAME    = SHIJIAN-16 (SJ-16)
OBJECT_ID      = 2013-057A
CENTER_NAME    = EARTH
REF_FRAME      = TEME
TIME_SYSTEM    = UTC
MEAN_ELEMENT_THEORY = SGP/SGP4

EPOCH          = 2025-12-23T20:49:06.992256
MEAN_MOTION    = 14.92011770
ECCENTRICITY   = .0017929
INCLINATION    = 74.9733
RA_OF_ASC_NODE = 328.5985
ARG_OF_PERICENTER = 294.0688
MEAN_ANOMALY   = 65.8623

EPHEMERIS_TYPE = 0
CLASSIFICATION_TYPE = U
NORAD_CAT_ID   = 39358
ELEMENT_SET_NO = 999
REV_AT_EPOCH   = 66019
BSTAR          = .13766E-3
MEAN_MOTION_DOT = .1371E-4
MEAN_MOTION_DDOT = 0

