ALOS (DAICHI)           
1 28931U 06002A   25351.73419158  .00001110  00000+0  19545-3 0  9994
2 28931  98.1098 303.1864 0001361 113.5739 246.5610 14.69501788 61443
H-2A R/B                
1 28932U 06002B   25356.82687502  .00009724  00000+0  50879-3 0  9994
2 28932  98.2323 132.4008 0054834 142.2339 218.2759 15.14759907 82797
RESURS-DK 1             
1 29228U 06021A   25357.61252052  .00002729  00000+0  16371-3 0  9997
2 29228  69.9337  73.7385 0006872 249.2294 110.8136 15.12217800 76022
CZ-4B R/B               
1 29507U 06046C   25357.06645236  .00005743  00000+0  29846-3 0  9993
2 29507  97.5715  37.1765 0034184 170.5195 189.6691 15.15968615 48432
CZ-2C R/B               
1 31114U 07010B   25357.77975705  .00000145  00000+0  85236-4 0  9994
2 31114  98.3975 109.8749 0059563 153.9994 206.4197 14.20214044968946
COSMO-SKYMED 1          
1 31598U 07023A   25357.82583399  .00003050  00000+0  27832-3 0  9999
2 31598  97.8840 183.2983 0001381  79.0236 281.1140 14.95845812  3566
COSMOS 2428             
1 31792U 07029A   25357.71202007  .00000190  00000+0  12770-3 0  9990
2 31792  70.9366   2.8420 0004295   8.2113 351.9077 14.12894112953367
SL-16 R/B               
1 31793U 07029B   25357.72340895  .00000285  00000+0  17261-3 0  9995
2 31793  70.9762 332.0683 0001877 263.7843 268.7871 14.14817979954623
KORONAS-FOTON           
1 33504U 09003A   25357.46660846  .00010054  00000+0  23903-3 0  9998
2 33504  82.4309 354.9880 0013348  75.0431 285.2291 15.41399762933998
CZ-2C R/B               
1 37731U 11030B   25357.12454911  .00001320  00000+0  17390-3 0  9993
2 37731  97.8430 311.0022 0051454 238.8490 131.0051 14.80932500778764
H-2A R/B                
1 38341U 12025E   25357.82099176  .00003289  00000+0  30494-3 0  9997
2 38341  98.4611 313.9060 0044515 199.2697 160.6839 14.94511109736884
SHIJIAN-16 (SJ-16)      
1 39358U 13057A   25357.86744204  .00001371  00000+0  13766-3 0  9998
2 39358  74.9733 328.5985 0017929 294.0688  65.8623 14.92011770660192
